[{"OBJECT_NAME":"STARLINK-35680","OBJECT_ID":"2025-270Y","EPOCH":"2026-03-09T22:29:35.759616","MEAN_MOTION":15.27608853,"ECCENTRICITY":0.00035908,"INCLINATION":43.0043,"RA_OF_ASC_NODE":54.7886,"ARG_OF_PERICENTER":302.0404,"MEAN_ANOMALY":58.0099,"EPHEMERIS_TYPE":0,"CLASSIFICATION_TYPE":"U","NORAD_CAT_ID":66610,"ELEMENT_SET_NO":999,"REV_AT_EPOCH":1785,"BSTAR":0.0011909637,"MEAN_MOTION_DOT":0.00032689,"MEAN_MOTION_DDOT":0},{"OBJECT_NAME":"OBJECT D","OBJECT_ID":"2025-197D","EPOCH":"2026-03-09T23:30:56.303712","MEAN_MOTION":15.25287442,"ECCENTRICITY":0.00144425,"INCLINATION":97.4091,"RA_OF_ASC_NODE":257.3677,"ARG_OF_PERICENTER":3.398,"MEAN_ANOMALY":356.7353,"EPHEMERIS_TYPE":0,"CLASSIFICATION_TYPE":"U","NORAD_CAT_ID":65491,"ELEMENT_SET_NO":999,"REV_AT_EPOCH":2822,"BSTAR":0.00037200129,"MEAN_MOTION_DOT":9.321e-5,"MEAN_MOTION_DDOT":0}]
